CCSDS_OMM_VERS = 2.0
CREATION_DATE  = 
ORIGINATOR     = 

OBJECT_NAME    = STARLINK-35312
OBJECT_ID      = 2025-223N
CENTER_NAME    = EARTH
REF_FRAME      = TEME
TIME_SYSTEM    = UTC
MEAN_ELEMENT_THEORY = SGP/SGP4

EPOCH          = 2025-10-30T04:16:25.955616
MEAN_MOTION    = 15.49338222
ECCENTRICITY   = .00015576
INCLINATION    = 53.1597
RA_OF_ASC_NODE = 182.5164
ARG_OF_PERICENTER = 111.1554
MEAN_ANOMALY   = 248.9622

EPHEMERIS_TYPE = 0
CLASSIFICATION_TYPE = U
NORAD_CAT_ID   = 65866
ELEMENT_SET_NO = 999
REV_AT_EPOCH   = 419
BSTAR          = .10792226E-2
MEAN_MOTION_DOT = .60099E-3
MEAN_MOTION_DDOT = 0

CCSDS_OMM_VERS = 2.0
CREATION_DATE  = 
ORIGINATOR     = 

OBJECT_NAME    = STARLINK-35456
OBJECT_ID      = 2025-223P
CENTER_NAME    = EARTH
REF_FRAME      = TEME
TIME_SYSTEM    = UTC
MEAN_ELEMENT_THEORY = SGP/SGP4

EPOCH          = 2025-10-30T04:15:56.361024
MEAN_MOTION    = 15.49333243
ECCENTRICITY   = .00011
INCLINATION    = 53.1599
RA_OF_ASC_NODE = 182.5133
ARG_OF_PERICENTER = 83.0423
MEAN_ANOMALY   = 277.0711

EPHEMERIS_TYPE = 0
CLASSIFICATION_TYPE = U
NORAD_CAT_ID   = 65867
ELEMENT_SET_NO = 999
REV_AT_EPOCH   = 419
BSTAR          = .11656947E-2
MEAN_MOTION_DOT = .64979E-3
MEAN_MOTION_DDOT = 0

CCSDS_OMM_VERS = 2.0
CREATION_DATE  = 
ORIGINATOR     = 

OBJECT_NAME    = STARLINK-35450
OBJECT_ID      = 2025-223Q
CENTER_NAME    = EARTH
REF_FRAME      = TEME
TIME_SYSTEM    = UTC
MEAN_ELEMENT_THEORY = SGP/SGP4

EPOCH          = 2025-10-30T06:00:02.000160
MEAN_MOTION    = 15.39666048
ECCENTRICITY   = .00012236
INCLINATION    = 53.1600
RA_OF_ASC_NODE = 182.4501
ARG_OF_PERICENTER = 88.6298
MEAN_ANOMALY   = 173.5305

EPHEMERIS_TYPE = 0
CLASSIFICATION_TYPE = U
NORAD_CAT_ID   = 65868
ELEMENT_SET_NO = 999
REV_AT_EPOCH   = 550
BSTAR          = -.24178108E-2
MEAN_MOTION_DOT = -.96046E-3
MEAN_MOTION_DDOT = 0

CCSDS_OMM_VERS = 2.0
CREATION_DATE  = 
ORIGINATOR     = 

OBJECT_NAME    = STARLINK-35441
OBJECT_ID      = 2025-223R
CENTER_NAME    = EARTH
REF_FRAME      = TEME
TIME_SYSTEM    = UTC
MEAN_ELEMENT_THEORY = SGP/SGP4

EPOCH          = 2025-10-30T03:25:11.430624
MEAN_MOTION    = 15.39664013
ECCENTRICITY   = .00010531
INCLINATION    = 53.1605
RA_OF_ASC_NODE = 183.0046
ARG_OF_PERICENTER = 112.4166
MEAN_ANOMALY   = 247.6950

EPHEMERIS_TYPE = 0
CLASSIFICATION_TYPE = U
NORAD_CAT_ID   = 65869
ELEMENT_SET_NO = 999
REV_AT_EPOCH   = 418
BSTAR          = .25614649E-2
MEAN_MOTION_DOT = .103609E-2
MEAN_MOTION_DDOT = 0

CCSDS_OMM_VERS = 2.0
CREATION_DATE  = 
ORIGINATOR     = 

OBJECT_NAME    = STARLINK-35433
OBJECT_ID      = 2025-223S
CENTER_NAME    = EARTH
REF_FRAME      = TEME
TIME_SYSTEM    = UTC
MEAN_ELEMENT_THEORY = SGP/SGP4

EPOCH          = 2025-10-30T06:00:02.000160
MEAN_MOTION    = 15.39597676
ECCENTRICITY   = .00012887
INCLINATION    = 53.1602
RA_OF_ASC_NODE = 182.3462
ARG_OF_PERICENTER = 82.3033
MEAN_ANOMALY   = 231.3672

EPHEMERIS_TYPE = 0
CLASSIFICATION_TYPE = U
NORAD_CAT_ID   = 65870
ELEMENT_SET_NO = 999
REV_AT_EPOCH   = 550
BSTAR          = .70300866E-3
MEAN_MOTION_DOT = .27802E-3
MEAN_MOTION_DDOT = 0

CCSDS_OMM_VERS = 2.0
CREATION_DATE  = 
ORIGINATOR     = 

OBJECT_NAME    = STARLINK-35465
OBJECT_ID      = 2025-223T
CENTER_NAME    = EARTH
REF_FRAME      = TEME
TIME_SYSTEM    = UTC
MEAN_ELEMENT_THEORY = SGP/SGP4

EPOCH          = 2025-10-30T06:00:02.000160
MEAN_MOTION    = 15.39587105
ECCENTRICITY   = .00011111
INCLINATION    = 53.1605
RA_OF_ASC_NODE = 182.3974
ARG_OF_PERICENTER = 84.0575
MEAN_ANOMALY   = 203.8944

EPHEMERIS_TYPE = 0
CLASSIFICATION_TYPE = U
NORAD_CAT_ID   = 65871
ELEMENT_SET_NO = 999
REV_AT_EPOCH   = 550
BSTAR          = .75027983E-3
MEAN_MOTION_DOT = .29695E-3
MEAN_MOTION_DDOT = 0

CCSDS_OMM_VERS = 2.0
CREATION_DATE  = 
ORIGINATOR     = 

OBJECT_NAME    = STARLINK-34108
OBJECT_ID      = 2025-223U
CENTER_NAME    = EARTH
REF_FRAME      = TEME
TIME_SYSTEM    = UTC
MEAN_ELEMENT_THEORY = SGP/SGP4

EPOCH          = 2025-10-30T06:00:02.000160
MEAN_MOTION    = 15.39585400
ECCENTRICITY   = .00009669
INCLINATION    = 53.1595
RA_OF_ASC_NODE = 182.2440
ARG_OF_PERICENTER = 87.8991
MEAN_ANOMALY   = 277.3133

EPHEMERIS_TYPE = 0
CLASSIFICATION_TYPE = U
NORAD_CAT_ID   = 65872
ELEMENT_SET_NO = 999
REV_AT_EPOCH   = 540
BSTAR          = .78558358E-3
MEAN_MOTION_DOT = .31116E-3
MEAN_MOTION_DDOT = 0

CCSDS_OMM_VERS = 2.0
CREATION_DATE  = 
ORIGINATOR     = 

OBJECT_NAME    = STARLINK-35423
OBJECT_ID      = 2025-223V
CENTER_NAME    = EARTH
REF_FRAME      = TEME
TIME_SYSTEM    = UTC
MEAN_ELEMENT_THEORY = SGP/SGP4

EPOCH          = 2025-10-30T06:00:02.000160
MEAN_MOTION    = 15.41105642
ECCENTRICITY   = .00010747
INCLINATION    = 53.1593
RA_OF_ASC_NODE = 182.1937
ARG_OF_PERICENTER = 115.7280
MEAN_ANOMALY   = 274.4687

EPHEMERIS_TYPE = 0
CLASSIFICATION_TYPE = U
NORAD_CAT_ID   = 65873
ELEMENT_SET_NO = 999
REV_AT_EPOCH   = 550
BSTAR          = -.5613756E-1
MEAN_MOTION_DOT = -.2089695E-1
MEAN_MOTION_DDOT = 0

CCSDS_OMM_VERS = 2.0
CREATION_DATE  = 
ORIGINATOR     = 

OBJECT_NAME    = STARLINK-35425
OBJECT_ID      = 2025-223W
CENTER_NAME    = EARTH
REF_FRAME      = TEME
TIME_SYSTEM    = UTC
MEAN_ELEMENT_THEORY = SGP/SGP4

EPOCH          = 2025-10-30T06:00:02.000160
MEAN_MOTION    = 15.39666553
ECCENTRICITY   = .000141
INCLINATION    = 53.1600
RA_OF_ASC_NODE = 182.2948
ARG_OF_PERICENTER = 75.7874
MEAN_ANOMALY   = 263.6286

EPHEMERIS_TYPE = 0
CLASSIFICATION_TYPE = U
NORAD_CAT_ID   = 65874
ELEMENT_SET_NO = 999
REV_AT_EPOCH   = 550
BSTAR          = -.24220124E-2
MEAN_MOTION_DOT = -.96213E-3
MEAN_MOTION_DDOT = 0

CCSDS_OMM_VERS = 2.0
CREATION_DATE  = 
ORIGINATOR     = 

OBJECT_NAME    = STARLINK-34688
OBJECT_ID      = 2025-223X
CENTER_NAME    = EARTH
REF_FRAME      = TEME
TIME_SYSTEM    = UTC
MEAN_ELEMENT_THEORY = SGP/SGP4

EPOCH          = 2025-10-30T06:00:02.000160
MEAN_MOTION    = 15.44090916
ECCENTRICITY   = .00006678
INCLINATION    = 53.1590
RA_OF_ASC_NODE = 182.1579
ARG_OF_PERICENTER = 103.2491
MEAN_ANOMALY   = 305.2209

EPHEMERIS_TYPE = 0
CLASSIFICATION_TYPE = U
NORAD_CAT_ID   = 65875
ELEMENT_SET_NO = 999
REV_AT_EPOCH   = 550
BSTAR          = -.47148644E-1
MEAN_MOTION_DOT = -.1957434E-1
MEAN_MOTION_DDOT = 0

CCSDS_OMM_VERS = 2.0
CREATION_DATE  = 
ORIGINATOR     = 

OBJECT_NAME    = STARLINK-34438
OBJECT_ID      = 2025-223Y
CENTER_NAME    = EARTH
REF_FRAME      = TEME
TIME_SYSTEM    = UTC
MEAN_ELEMENT_THEORY = SGP/SGP4

EPOCH          = 2025-10-30T04:11:29.379840
MEAN_MOTION    = 15.49344714
ECCENTRICITY   = .00015089
INCLINATION    = 53.1596
RA_OF_ASC_NODE = 182.4938
ARG_OF_PERICENTER = 68.4566
MEAN_ANOMALY   = 291.6604

EPHEMERIS_TYPE = 0
CLASSIFICATION_TYPE = U
NORAD_CAT_ID   = 65876
ELEMENT_SET_NO = 999
REV_AT_EPOCH   = 419
BSTAR          = .18244569E-2
MEAN_MOTION_DOT = .102491E-2
MEAN_MOTION_DDOT = 0

CCSDS_OMM_VERS = 2.0
CREATION_DATE  = 
ORIGINATOR     = 

OBJECT_NAME    = STARLINK-35462
OBJECT_ID      = 2025-223Z
CENTER_NAME    = EARTH
REF_FRAME      = TEME
TIME_SYSTEM    = UTC
MEAN_ELEMENT_THEORY = SGP/SGP4

EPOCH          = 2025-10-30T04:10:00.092352
MEAN_MOTION    = 15.49332245
ECCENTRICITY   = .00010641
INCLINATION    = 53.1599
RA_OF_ASC_NODE = 182.4849
ARG_OF_PERICENTER = 128.0875
MEAN_ANOMALY   = 232.0230

EPHEMERIS_TYPE = 0
CLASSIFICATION_TYPE = U
NORAD_CAT_ID   = 65877
ELEMENT_SET_NO = 999
REV_AT_EPOCH   = 419
BSTAR          = .1004586E-2
MEAN_MOTION_DOT = .55869E-3
MEAN_MOTION_DDOT = 0

