STARLINK-35312          
1 65866U 25223N   25303.17807819  .00060099  00000+0  10792-2 0  9993
2 65866  53.1597 182.5164 0001557 111.1554 248.9622 15.49338222  4192
STARLINK-35456          
1 65867U 25223P   25303.17773566  .00064979  00000+0  11657-2 0  9997
2 65867  53.1599 182.5133 0001100  83.0423 277.0711 15.49333243  4197
STARLINK-35450          
1 65868U 25223Q   25303.25002315 -.00096046  00000+0 -24178-2 0  9998
2 65868  53.1600 182.4501 0001223  88.6298 173.5305 15.39666048  5502
STARLINK-35441          
1 65869U 25223R   25303.14249341  .00103609  00000+0  25615-2 0  9998
2 65869  53.1605 183.0046 0001053 112.4166 247.6950 15.39664013  4182
STARLINK-35433          
1 65870U 25223S   25303.25002315  .00027802  00000+0  70301-3 0  9993
2 65870  53.1602 182.3462 0001288  82.3033 231.3672 15.39597676  5501
STARLINK-35465          
1 65871U 25223T   25303.25002315  .00029695  00000+0  75028-3 0  9997
2 65871  53.1605 182.3974 0001111  84.0575 203.8944 15.39587105  5500
STARLINK-34108          
1 65872U 25223U   25303.25002315  .00031116  00000+0  78558-3 0  9990
2 65872  53.1595 182.2440 0000966  87.8991 277.3133 15.39585400  5407
STARLINK-35423          
1 65873U 25223V   25303.25002315 -.02089695  00000+0 -56138-1 0  9998
2 65873  53.1593 182.1937 0001074 115.7280 274.4687 15.41105642  5501
STARLINK-35425          
1 65874U 25223W   25303.25002315 -.00096213  00000+0 -24220-2 0  9999
2 65874  53.1600 182.2948 0001410  75.7874 263.6286 15.39666553  5507
STARLINK-34688          
1 65875U 25223X   25303.25002315 -.01957434  00000+0 -47149-1 0  9996
2 65875  53.1590 182.1579 0000667 103.2491 305.2209 15.44090916  5508
STARLINK-34438          
1 65876U 25223Y   25303.17464560  .00102491  00000+0  18245-2 0  9990
2 65876  53.1596 182.4938 0001508  68.4566 291.6604 15.49344714  4191
STARLINK-35462          
1 65877U 25223Z   25303.17361218  .00055869  00000+0  10046-2 0  9994
2 65877  53.1599 182.4849 0001064 128.0875 232.0230 15.49332245  4199
